{"epoch":1784799577,"count":18318,"objects":[{"id":"51897","name":"STARLINK-3598","type":"PAYLOAD","l1":"1 51897U 22022AX  26203.06020792  .00000508  00000-0  26174-4 0  9994","l2":"2 51897  53.1627 109.9538 0001228  88.1456 271.9687 15.34389270243614"},{"id":"51898","name":"STARLINK-3597","type":"PAYLOAD","l1":"1 51898U 22022AY  26203.90067133  .00001321  00000-0  50222-4 0  9993","l2":"2 51898  53.1610 105.9993 0001338  85.2159 274.8997 15.34393147243791"},{"id":"51956","name":"STARLINK-3700","type":"PAYLOAD","l1":"1 51956U 22025A   26203.74220946  .00000235  00000-0  19337-4 0  9991","l2":"2 51956  53.1608 105.2476 0001305  88.8518 271.2633 15.31706054241860"},{"id":"51957","name":"STARLINK-3694","type":"PAYLOAD","l1":"1 51957U 22025B   26203.80327138 -.00000384  00000-0 -60306-6 0  9991","l2":"2 51957  53.1609 128.1830 0001294  82.7564 277.3584 15.31703207241534"},{"id":"51958","name":"STARLINK-3692","type":"PAYLOAD","l1":"1 51958U 22025C   26203.01512182  .00000986  00000-0  43543-4 0  9998","l2":"2 51958  53.1603 108.5418 0001360  93.1208 266.9950 15.31704716241759"},{"id":"51959","name":"STARLINK-3704","type":"PAYLOAD","l1":"1 51959U 22025D   26203.79935391  .00001874  00000-0  72148-4 0  9995","l2":"2 51959  53.1607 128.7738 0001607  86.6315 273.4870 15.31693247241528"},{"id":"51960","name":"STARLINK-3691","type":"PAYLOAD","l1":"1 51960U 22025E   26203.52359143 -.00000147  00000-0  70429-5 0  9997","l2":"2 51960  53.1598 129.2968 0001261  91.3263 268.7883 15.31706251241498"},{"id":"51962","name":"STARLINK-3697","type":"PAYLOAD","l1":"1 51962U 22025G   26203.78159792  .00000112  00000-0  15391-4 0  9992","l2":"2 51962  53.1601 115.7110 0001362  91.8078 268.3079 15.31705110241716"},{"id":"51963","name":"STARLINK-3675","type":"PAYLOAD","l1":"1 51963U 22025H   26203.01046160  .00002416  00000-0  89574-4 0  9996","l2":"2 51963  53.1601 108.5618 0001309  86.1611 273.9540 15.31705667241757"},{"id":"51964","name":"STARLINK-3690","type":"PAYLOAD","l1":"1 51964U 22025J   26203.76761369 -.00000021  00000-0  11077-4 0  9998","l2":"2 51964  53.1602 115.7607 0001250  88.7084 271.4060 15.31703085241712"},{"id":"51965","name":"STARLINK-3696","type":"PAYLOAD","l1":"1 51965U 22025K   26203.11818870 -.00000012  00000-0  11384-4 0  9999","l2":"2 51965  53.1602 131.7321 0001300  93.0744 267.0406 15.31699556241422"},{"id":"51966","name":"STARLINK-3699","type":"PAYLOAD","l1":"1 51966U 22025L   26203.76134072  .00000115  00000-0  15465-4 0  9993","l2":"2 51966  53.1624 128.4972 0001594  77.5035 282.6144 15.31703862241526"},{"id":"51968","name":"STARLINK-3681","type":"PAYLOAD","l1":"1 51968U 22025N   26203.75829188  .00000144  00000-0  16390-4 0  9993","l2":"2 51968  53.1598 115.8043 0001302  92.1542 267.9609 15.31707201241714"},{"id":"51969","name":"STARLINK-3680","type":"PAYLOAD","l1":"1 51969U 22025P   26202.07576907  .00000658  00000-0  32967-4 0  9994","l2":"2 51969  53.1605 123.6826 0001418  96.1643 263.9520 15.31706708241443"},{"id":"51970","name":"STARLINK-3677","type":"PAYLOAD","l1":"1 51970U 22025Q   26203.79469743  .00000168  00000-0  17195-4 0  9997","l2":"2 51970  53.1623 128.8256 0001462  85.6735 274.4434 15.31702070241521"},{"id":"51971","name":"STARLINK-3669","type":"PAYLOAD","l1":"1 51971U 22025R   26203.78628747 -.00000547  00000-0 -58453-5 0  9994","l2":"2 51971  53.1614 115.8828 0001500  97.3948 262.7224 15.31700891241719"},{"id":"51972","name":"STARLINK-3671","type":"PAYLOAD","l1":"1 51972U 22025S   26203.06295224 -.00000027  00000-0  10893-4 0  9993","l2":"2 51972  53.1624 132.1794 0001375  97.4800 262.6358 15.31703026241410"},{"id":"51973","name":"STARLINK-3679","type":"PAYLOAD","l1":"1 51973U 22025T   26203.81727172 -.00000338  00000-0  86071-6 0  9997","l2":"2 51973  53.1622 128.2104 0001297  87.8670 272.2480 15.31710807241532"},{"id":"51974","name":"STARLINK-3672","type":"PAYLOAD","l1":"1 51974U 22025U   26203.82195903 -.00000523  00000-0 -50931-5 0  9992","l2":"2 51974  53.1631 128.4191 0001551  93.0016 267.1163 15.31700745241527"},{"id":"51975","name":"STARLINK-3674","type":"PAYLOAD","l1":"1 51975U 22025V   26203.04513246  .00000268  00000-0  20412-4 0  9995","l2":"2 51975  53.1601 118.6580 0001218  82.5251 277.5889 15.31705748241610"},{"id":"51977","name":"STARLINK-3660","type":"PAYLOAD","l1":"1 51977U 22025X   26203.03500146  .00000603  00000-0  31203-4 0  9994","l2":"2 51977  53.1618 132.3927 0001405  93.1796 266.9366 15.31707657241666"},{"id":"51980","name":"STARLINK-3649","type":"PAYLOAD","l1":"1 51980U 22025AA  26203.86282650  .00000186  00000-0  29775-4 0  9993","l2":"2 51980  53.1607 151.9976 0001439  71.0753 289.0394 15.08839286241467"},{"id":"51981","name":"STARLINK-3635","type":"PAYLOAD","l1":"1 51981U 22025AB  26203.91668981  .00039670  00000-0  20612-2 0  9994","l2":"2 51981  53.1601 151.6133 0001173 115.8240 168.8653 15.15733943  5749"},{"id":"51983","name":"STARLINK-3655","type":"PAYLOAD","l1":"1 51983U 22025AD  26203.27770861 -.00000131  00000-0  98446-5 0  9990","l2":"2 51983  53.1600 154.6331 0001392  66.9950 293.1188 15.08838544241371"},{"id":"51984","name":"STARLINK-3664","type":"PAYLOAD","l1":"1 51984U 22025AE  26203.18301029  .00001145  00000-0  90005-4 0  9994","l2":"2 51984  53.1619 155.1354 0001627  71.8455 288.2714 15.08836560241364"},{"id":"51985","name":"STARLINK-3651","type":"PAYLOAD","l1":"1 51985U 22025AF  26203.91668981  .00006253  00000-0  21307-3 0  9992","l2":"2 51985  53.1593 149.1832 0001368 108.1259  47.9865 15.31706672  5549"},{"id":"51986","name":"STARLINK-3645","type":"PAYLOAD","l1":"1 51986U 22025AG  26203.81497808 -.00003677  00000-0 -21304-3 0  9996","l2":"2 51986  53.1607 152.0563 0001157  88.2008 271.9116 15.08844807241464"},{"id":"51987","name":"STARLINK-3644","type":"PAYLOAD","l1":"1 51987U 22025AH  26203.13144038  .00003123  00000-0  10354-3 0  9993","l2":"2 51987  53.1636 149.8442 0001411  93.0758 267.0406 15.34391552241434"},{"id":"51988","name":"STARLINK-3640","type":"PAYLOAD","l1":"1 51988U 22025AJ  26203.13803948  .00020064  00000-0  65615-3 0  9999","l2":"2 51988  53.1602 152.8876 0001084  62.0627 298.0484 15.31720940241399"},{"id":"51989","name":"STARLINK-3642","type":"PAYLOAD","l1":"1 51989U 22025AK  26203.84583670  .00001369  00000-0  51659-4 0  9996","l2":"2 51989  53.1626 146.5235 0001224  94.5860 265.5283 15.34385655241546"}]}