OBJECT_NAME,OBJECT_ID,EPOCH,MEAN_MOTION,ECCENTRICITY,INCLINATION,RA_OF_ASC_NODE,ARG_OF_PERICENTER,MEAN_ANOMALY,EPHEMERIS_TYPE,CLASSIFICATION_TYPE,NORAD_CAT_ID,ELEMENT_SET_NO,REV_AT_EPOCH,BSTAR,MEAN_MOTION_DOT,MEAN_MOTION_DDOT
STARLINK-3598,2022-022AX,2026-07-22T01:26:41.964288,15.34389270,.00012278,53.1627,109.9538,88.1456,271.9687,0,U,51897,999,24361,.26173984E-4,.508E-5,0
STARLINK-3597,2022-022AY,2026-07-22T21:36:58.002912,15.34393147,.00013378,53.1610,105.9993,85.2159,274.8997,0,U,51898,999,24379,.50222309E-4,.1321E-4,0
STARLINK-3700,2022-025A,2026-07-22T17:48:46.897344,15.31706054,.00013052,53.1608,105.2476,88.8518,271.2633,0,U,51956,999,24186,.19337049E-4,.235E-5,0
STARLINK-3694,2022-025B,2026-07-22T19:16:42.647232,15.31703207,.00012939,53.1609,128.1830,82.7564,277.3584,0,U,51957,999,24153,-.603056E-6,-.384E-5,0
STARLINK-3692,2022-025C,2026-07-22T00:21:46.525248,15.31704716,.00013596,53.1603,108.5418,93.1208,266.9950,0,U,51958,999,24175,.43542694E-4,.986E-5,0
STARLINK-3704,2022-025D,2026-07-22T19:11:04.177824,15.31693247,.0001607,53.1607,128.7738,86.6315,273.4870,0,U,51959,999,24152,.72147831E-4,.1874E-4,0
STARLINK-3691,2022-025E,2026-07-22T12:33:58.299552,15.31706251,.00012608,53.1598,129.2968,91.3263,268.7883,0,U,51960,999,24149,.7042873E-5,-.147E-5,0
STARLINK-3697,2022-025G,2026-07-22T18:45:30.060288,15.31705110,.00013618,53.1601,115.7110,91.8078,268.3079,0,U,51962,999,24171,.1539068E-4,.112E-5,0
STARLINK-3675,2022-025H,2026-07-22T00:15:03.882240,15.31705667,.00013092,53.1601,108.5618,86.1611,273.9540,0,U,51963,999,24175,.89574155E-4,.2416E-4,0
STARLINK-3690,2022-025J,2026-07-22T18:25:21.822816,15.31703085,.00012495,53.1602,115.7607,88.7084,271.4060,0,U,51964,999,24171,.11077336E-4,-.21E-6,0
STARLINK-3696,2022-025K,2026-07-22T02:50:11.503680,15.31699556,.00012996,53.1602,131.7321,93.0744,267.0406,0,U,51965,999,24142,.11383964E-4,-.12E-6,0
STARLINK-3699,2022-025L,2026-07-22T18:16:19.838208,15.31703862,.00015939,53.1624,128.4972,77.5035,282.6144,0,U,51966,999,24152,.15465142E-4,.115E-5,0
STARLINK-3681,2022-025N,2026-07-22T18:11:56.418432,15.31707201,.00013024,53.1598,115.8043,92.1542,267.9609,0,U,51968,999,24171,.16390426E-4,.144E-5,0
STARLINK-3680,2022-025P,2026-07-21T01:49:06.447648,15.31706708,.0001418,53.1605,123.6826,96.1643,263.9520,0,U,51969,999,24144,.32966677E-4,.658E-5,0
STARLINK-3677,2022-025Q,2026-07-22T19:04:21.857952,15.31702070,.00014623,53.1623,128.8256,85.6735,274.4434,0,U,51970,999,24152,.17194855E-4,.168E-5,0
STARLINK-3669,2022-025R,2026-07-22T18:52:15.237408,15.31700891,.00015,53.1614,115.8828,97.3948,262.7224,0,U,51971,999,24171,-.5845285E-5,-.547E-5,0
STARLINK-3671,2022-025S,2026-07-22T01:30:39.073536,15.31703026,.00013752,53.1624,132.1794,97.4800,262.6358,0,U,51972,999,24141,.10892818E-4,-.27E-6,0
STARLINK-3679,2022-025T,2026-07-22T19:36:52.276608,15.31710807,.00012967,53.1622,128.2104,87.8670,272.2480,0,U,51973,999,24153,.860709E-6,-.338E-5,0
STARLINK-3672,2022-025U,2026-07-22T19:43:37.260192,15.31700745,.00015506,53.1631,128.4191,93.0016,267.1163,0,U,51974,999,24152,-.5093062E-5,-.523E-5,0
STARLINK-3674,2022-025V,2026-07-22T01:04:59.444544,15.31705748,.00012176,53.1601,118.6580,82.5251,277.5889,0,U,51975,999,24161,.20412213E-4,.268E-5,0
STARLINK-3660,2022-025X,2026-07-22T00:50:24.126144,15.31707657,.00014048,53.1618,132.3927,93.1796,266.9366,0,U,51977,999,24166,.31202651E-4,.603E-5,0
STARLINK-3649,2022-025AA,2026-07-22T20:42:28.209600,15.08839286,.00014389,53.1607,151.9976,71.0753,289.0394,0,U,51980,999,24146,.29775324E-4,.186E-5,0
STARLINK-3635,2022-025AB,2026-07-22T22:00:01.999584,15.15733943,.0001173,53.1601,151.6133,115.8240,168.8653,0,U,51981,999,574,.20611928E-2,.3967E-3,0
STARLINK-3655,2022-025AD,2026-07-22T06:39:54.023904,15.08838544,.00013924,53.1600,154.6331,66.9950,293.1188,0,U,51983,999,24137,.9844608E-5,-.131E-5,0
STARLINK-3664,2022-025AE,2026-07-22T04:23:32.089056,15.08836560,.00016267,53.1619,155.1354,71.8455,288.2714,0,U,51984,999,24136,.90004748E-4,.1145E-4,0
STARLINK-3651,2022-025AF,2026-07-22T22:00:01.999584,15.31706672,.00013677,53.1593,149.1832,108.1259,47.9865,0,U,51985,999,554,.21306815E-3,.6253E-4,0
STARLINK-3645,2022-025AG,2026-07-22T19:33:34.106112,15.08844807,.00011572,53.1607,152.0563,88.2008,271.9116,0,U,51986,999,24146,-.21303942E-3,-.3677E-4,0
STARLINK-3644,2022-025AH,2026-07-22T03:09:16.448832,15.34391552,.00014111,53.1636,149.8442,93.0758,267.0406,0,U,51987,999,24143,.1035429E-3,.3123E-4,0
STARLINK-3640,2022-025AJ,2026-07-22T03:18:46.611072,15.31720940,.00010838,53.1602,152.8876,62.0627,298.0484,0,U,51988,999,24139,.65615385E-3,.20064E-3,0
STARLINK-3642,2022-025AK,2026-07-22T20:18:00.290880,15.34385655,.00012239,53.1626,146.5235,94.5860,265.5283,0,U,51989,999,24154,.51658752E-4,.1369E-4,0
